[{"OBJECT_NAME":"STARLINK-30851","OBJECT_ID":"2023-170K","EPOCH":"2026-03-09T22:00:01.999584","MEAN_MOTION":15.27577842,"ECCENTRICITY":0.00014358,"INCLINATION":42.9995,"RA_OF_ASC_NODE":192.7124,"ARG_OF_PERICENTER":260.338,"MEAN_ANOMALY":216.0085,"EPHEMERIS_TYPE":0,"CLASSIFICATION_TYPE":"U","NORAD_CAT_ID":58215,"ELEMENT_SET_NO":999,"REV_AT_EPOCH":578,"BSTAR":0.00088140186,"MEAN_MOTION_DOT":0.0002407,"MEAN_MOTION_DDOT":0},{"OBJECT_NAME":"TIANMU-1 11","OBJECT_ID":"2023-205A","EPOCH":"2026-03-10T00:04:04.804896","MEAN_MOTION":15.25886825,"ECCENTRICITY":0.00089558,"INCLINATION":97.3549,"RA_OF_ASC_NODE":92.1484,"ARG_OF_PERICENTER":7.2987,"MEAN_ANOMALY":352.838,"EPHEMERIS_TYPE":0,"CLASSIFICATION_TYPE":"U","NORAD_CAT_ID":58645,"ELEMENT_SET_NO":999,"REV_AT_EPOCH":12239,"BSTAR":0.00031315232,"MEAN_MOTION_DOT":7.963e-5,"MEAN_MOTION_DDOT":0}]
